{
  "type": "FeatureCollection",
  "features": [
    {
      "type": "Feature",
      "properties": {
        "id": "northwest",
        "entity": "province_northwest",
        "name": "Северо-Запад",
        "city": "Милан / Генуя",
        "color": "#9a5a48"
      },
      "geometry": {
        "type": "Polygon",
        "coordinates": [[
          [7.50,43.80],[7.70,44.00],[8.00,44.20],[8.40,44.40],[8.80,44.45],[9.20,44.40],
          [9.50,44.25],[9.80,44.05],[10.10,43.90],[10.40,43.65],
          [10.55,44.10],[10.60,44.60],[10.40,45.05],[10.00,45.35],[9.50,45.50],
          [9.00,45.55],[8.50,45.40],[8.10,45.10],[7.80,44.70],[7.60,44.25],[7.50,43.80]
        ]]
      }
    },
    {
      "type": "Feature",
      "properties": {
        "id": "northeast",
        "entity": "province_northeast",
        "name": "Северо-Восток",
        "city": "Венеция",
        "color": "#6f8548"
      },
      "geometry": {
        "type": "Polygon",
        "coordinates": [[
          [10.40,43.65],[10.60,43.35],[10.80,43.05],[11.10,42.75],[11.40,42.45],[11.70,42.15],
          [12.05,42.50],[12.45,42.95],[12.85,43.40],[13.15,43.90],[13.30,44.40],[13.20,44.90],
          [12.85,45.30],[12.40,45.55],[11.85,45.65],[11.30,45.60],[10.80,45.40],[10.40,45.05],
          [10.60,44.60],[10.55,44.10],[10.40,43.65]
        ]]
      }
    },
    {
      "type": "Feature",
      "properties": {
        "id": "center",
        "entity": "province_central",
        "name": "Центр",
        "city": "Рим",
        "color": "#48788a"
      },
      "geometry": {
        "type": "Polygon",
        "coordinates": [[
          [11.70,42.15],[12.00,41.90],[12.25,41.60],[12.50,41.35],[12.85,41.15],[13.25,41.00],
          [13.55,41.35],[13.70,41.80],[13.55,42.25],[13.25,42.70],[12.85,43.10],[12.45,42.95],
          [12.05,42.50],[11.70,42.15]
        ]]
      }
    },
    {
      "type": "Feature",
      "properties": {
        "id": "south",
        "entity": "province_south",
        "name": "Юг",
        "city": "Неаполь",
        "color": "#b89a55"
      },
      "geometry": {
        "type": "Polygon",
        "coordinates": [[
          [13.25,41.00],[13.70,40.90],[14.15,40.85],[14.55,40.70],[14.95,40.50],[15.35,40.30],
          [15.80,40.15],[16.20,40.00],[16.60,39.95],[17.05,40.15],[17.50,40.40],[17.95,40.55],
          [18.30,40.35],[18.40,40.00],[18.20,39.70],[17.80,39.55],[17.30,39.60],[16.85,39.80],
          [16.45,39.55],[16.15,39.20],[15.90,38.85],[15.75,38.50],[15.80,38.15],[16.05,37.85],
          [16.15,37.55],[15.90,37.40],[15.45,37.55],[15.00,37.90],[14.55,38.15],[14.15,38.40],
          [13.80,38.75],[13.50,39.15],[13.20,39.55],[12.90,39.95],[12.60,40.35],[12.30,40.70],
          [12.00,41.05],[12.35,41.20],[12.85,41.15],[13.25,41.00]
        ]]
      }
    }
  ]
}
