{
  "type": "FeatureCollection",
  "features": [
    {
      "type": "Feature",
      "properties": { "id": "italy", "name": "Italy" },
      "geometry": {
        "type": "Polygon",
        "coordinates": [[
          [7.50,43.80],[7.70,44.00],[8.00,44.20],[8.40,44.40],[8.80,44.45],[9.20,44.40],
          [9.50,44.25],[9.80,44.05],[10.10,43.90],[10.40,43.65],[10.60,43.35],[10.80,43.05],
          [11.10,42.75],[11.40,42.45],[11.70,42.15],[12.00,41.90],[12.25,41.60],[12.50,41.35],
          [12.85,41.15],[13.25,41.00],[13.70,40.90],[14.15,40.85],[14.55,40.70],[14.95,40.50],
          [15.35,40.30],[15.80,40.15],[16.20,40.00],[16.60,39.95],[17.05,40.15],[17.50,40.40],
          [17.95,40.55],[18.30,40.35],[18.40,40.00],[18.20,39.70],[17.80,39.55],[17.30,39.60],
          [16.85,39.80],[16.45,39.55],[16.15,39.20],[15.90,38.85],[15.75,38.50],[15.80,38.15],
          [16.05,37.85],[16.15,37.55],[15.90,37.40],[15.45,37.55],[15.00,37.90],[14.55,38.15],
          [14.15,38.40],[13.80,38.75],[13.50,39.15],[13.20,39.55],[12.90,39.95],[12.60,40.35],
          [12.30,40.70],[12.00,41.05],[11.70,41.40],[11.40,41.75],[11.10,42.10],[10.80,42.45],
          [10.50,42.80],[10.20,43.15],[9.90,43.45],[9.55,43.65],[9.20,43.75],[8.80,43.80],
          [8.40,43.75],[8.00,43.70],[7.70,43.75],[7.50,43.80]
        ]]
      }
    }
  ]
}
