{
  "type": "FeatureCollection",
  "features": [
    {
      "type": "Feature",
      "properties": { "id": "italy-main", "name": "Italy" },
      "geometry": {
        "type": "Polygon",
        "coordinates": [[
          [6.6, 45.6], [7.4, 45.1], [8.2, 44.9], [9.2, 44.5], [9.9, 44.5], [10.5, 44.0], [11.5, 44.0],
          [12.3, 44.4], [13.5, 44.1], [14.0, 43.6], [14.8, 43.0], [15.5, 42.5], [16.5, 41.9], [17.3, 41.3],
          [17.0, 40.5], [16.5, 40.0], [15.5, 39.5], [14.5, 39.4], [13.9, 39.6], [13.3, 39.0], [12.5, 38.0],
          [12.0, 37.5], [11.0, 37.5], [10.0, 38.0], [9.5, 38.6], [8.8, 39.3], [8.2, 40.1], [7.6, 41.5],
          [7.0, 42.5], [6.6, 44.0], [6.6, 45.6]
        ]]
      }
    },
    {
      "type": "Feature",
      "properties": { "id": "sicily", "name": "Sicily" },
      "geometry": {
        "type": "Polygon",
        "coordinates": [[
          [12.0, 37.0], [12.8, 37.0], [13.5, 37.3], [14.8, 38.0], [14.5, 38.7], [13.5, 38.1], [12.0, 37.0]
        ]]
      }
    }
  ]
}
