{
  "type": "FeatureCollection",
  "features": [
    {
      "type": "Feature",
      "properties": { "id": "genoa", "name": "Генуя" },
      "geometry": {
        "type": "Polygon",
        "coordinates": [[
          [7.6,43.6],[7.85,43.75],[8.1,43.9],[8.45,44.05],[8.8,44.15],[9.05,44.25],[9.25,44.36],[9.4,44.45],[9.55,44.48],[9.7,44.46],[9.85,44.38],[9.75,44.12],[9.5,43.95],[9.25,43.8],[9.05,43.7],[8.8,43.6],[8.5,43.55],[8.2,43.55],[7.95,43.58],[7.75,43.6],[7.6,43.6]
        ]]
      }
    },
    {
      "type": "Feature",
      "properties": { "id": "venice", "name": "Венеция" },
      "geometry": {
        "type": "Polygon",
        "coordinates": [[
          [11.0,45.6],[11.2,45.7],[11.45,45.85],[11.7,46.0],[11.95,46.08],[12.25,46.05],[12.55,45.95],[12.8,45.75],[13.05,45.6],[13.15,45.5],[13.05,45.35],[12.7,45.25],[12.35,45.18],[12.05,45.2],[11.75,45.28],[11.5,45.4],[11.28,45.5],[11.0,45.6]
        ]]
      }
    },
    {
      "type": "Feature",
      "properties": { "id": "rome", "name": "Рим" },
      "geometry": {
        "type": "Polygon",
        "coordinates": [[
          [11.0,42.2],[11.25,42.45],[11.6,42.7],[11.95,42.85],[12.35,42.75],[12.6,42.6],[12.9,42.35],[13.05,42.05],[13.05,41.7],[12.9,41.35],[12.6,41.05],[12.3,40.9],[12.0,40.85],[11.6,40.9],[11.3,41.05],[11.05,41.35],[10.95,41.75],[11.0,42.2]
        ]]
      }
    },
    {
      "type": "Feature",
      "properties": { "id": "naples", "name": "Неаполь" },
      "geometry": {
        "type": "Polygon",
        "coordinates": [[
          [12.8,41.0],[13.05,41.25],[13.35,41.4],[13.85,41.5],[14.4,41.4],[14.85,41.15],[15.05,40.8],[15.05,40.5],[14.85,40.15],[14.45,40.0],[13.95,39.95],[13.55,40.05],[13.2,40.25],[12.95,40.5],[12.8,41.0]
        ]]
      }
    }
  ]
}
